{
 "type": "FeatureCollection",
 "version": "1.0-draft",
 "description": "Venti deforming-area database v1 (plan T41.2): persistent deformation excluded from the calibration fit and restored. Houston from the trade study; San Joaquin, Kern and Kilauea drafted with venti-defo-areas from the T40 benchmark frames. Draft until owner review.",
 "features": [
  {
   "type": "Feature",
   "properties": {
    "id": "houston_galveston_subsidence",
    "name": "Houston-Galveston subsidence",
    "source": "trade study rr4 (defo_area2.geojson): union(Marin polygon, connected zone with 7-yr LOS velocity < -1.5 mm/yr vs stable) + 10 km",
    "frame_id": 8882
   },
   "geometry": {
    "type": "Polygon",
    "coordinates": [
     [
      [
       -96.34006569253225,
       30.048988905549386
      ],
      [
       -96.348560290111,
       30.087872824309123
      ],
      [
       -96.32679127570682,
       30.121329646514795
      ],
      [
       -96.19829466984908,
       30.17746784983898
      ],
      [
       -96.16299759949038,
       30.21519561516321
      ],
      [
       -96.13675046868636,
       30.23197258153333
      ],
      [
       -96.07235380640942,
       30.236915429555612
      ],
      [
       -96.02883429626641,
       30.271318138281302
      ],
      [
       -95.99402077579236,
       30.284411027888858
      ],
      [
       -95.9464050209475,
       30.286574541610534
      ],
      [
       -95.87779868797777,
       30.271598303334184
      ],
      [
       -95.78463491465615,
       30.295167348048654
      ],
      [
       -95.72001607421208,
       30.34343712648259
      ],
      [
       -95.68139633130477,
       30.34839386454926
      ],
      [
       -95.62923960564713,
       30.341480890057714
      ],
      [
       -95.60514497463241,
       30.34841418106085
      ],
      [
       -95.58542101073303,
       30.368397070768438
      ],
      [
       -95.5422955887576,
       30.46345289857337
      ],
      [
       -95.49285848751119,
       30.494819570985737
      ],
      [
       -95.43887523157278,
       30.515685868504434
      ],
      [
       -95.36070770504416,
       30.52217211084251
      ],
      [
       -95.2689878662007,
       30.499651735375824
      ],
      [
       -95.22606092864983,
       30.502934149879565
      ],
      [
       -95.18524515217285,
       30.516288928231102
      ],
      [
       -95.1060656399348,
       30.521511865524484
      ],
      [
       -95.02331435521646,
       30.495869119761434
      ],
      [
       -94.96514682248868,
       30.448932251171815
      ],
      [
       -94.91864651484126,
       30.430568610436644
      ],
      [
       -94.89377996297196,
       30.39943993027575
      ],
      [
       -94.8543422635092,
       30.267924926435306
      ],
      [
       -94.87043962846262,
       30.184836292619032
      ],
      [
       -94.82191835489564,
       30.1350486637795
      ],
      [
       -94.81995600007025,
       30.086211443048917
      ],
      [
       -94.80676705830031,
       30.0531411955828
      ],
      [
       -94.82308387558076,
       29.959000752813633
      ],
      [
       -94.8108684874624,
       29.939835203768506
      ],
      [
       -94.77164612592908,
       29.910748566879914
      ],
      [
       -94.75760185993987,
       29.876244560270866
      ],
      [
       -94.76081225742323,
       29.849128398313262
      ],
      [
       -94.7887921200671,
       29.80540556249504
      ],
      [
       -94.77412861488642,
       29.75692426775717
      ],
      [
       -94.77566121395932,
       29.731827981423777
      ],
      [
       -94.79701125148728,
       29.70087632696615
      ],
      [
       -94.8241324289602,
       29.681407056503975
      ],
      [
       -94.85623228430337,
       29.67270530280538
      ],
      [
       -94.88627237618687,
       29.679927892399977
      ],
      [
       -94.93416935182694,
       29.73933310723283
      ],
      [
       -95.02788168803573,
       29.766780089985012
      ],
      [
       -95.08510222017809,
       29.79731777198416
      ],
      [
       -95.11243541255426,
       29.840513195888104
      ],
      [
       -95.11166386852038,
       29.888887821111677
      ],
      [
       -95.11940780591227,
       29.90974045558272
      ],
      [
       -95.16119339106469,
       29.950809229179367
      ],
      [
       -95.20608143312991,
       29.958953200170164
      ],
      [
       -95.27506886855811,
       29.91817768062466
      ],
      [
       -95.29184176050339,
       29.865331829547767
      ],
      [
       -95.32421105435031,
       29.809888474310032
      ],
      [
       -95.39006995496413,
       29.7618563701689
      ],
      [
       -95.45566476418261,
       29.741974192446893
      ],
      [
       -95.53948633737504,
       29.74405915533895
      ],
      [
       -95.57043086488622,
       29.730683739201133
      ],
      [
       -95.58294527872646,
       29.71189628703513
      ],
      [
       -95.59516834691584,
       29.642117877427438
      ],
      [
       -95.62583849758957,
       29.591912877412692
      ],
      [
       -95.67131778865047,
       29.554654762379556
      ],
      [
       -95.74309841118195,
       29.528195702608024
      ],
      [
       -95.88242455202217,
       29.531878661861132
      ],
      [
       -95.91079868721529,
       29.54933818012755
      ],
      [
       -95.9719000880009,
       29.632551683129783
      ],
      [
       -96.01842145707266,
       29.65030867535158
      ],
      [
       -96.03800653819323,
       29.670073582858155
      ],
      [
       -96.04553247034126,
       29.756483511801743
      ],
      [
       -96.03258153796146,
       29.800661581616332
      ],
      [
       -96.05137648021156,
       29.843395280939752
      ],
      [
       -96.08085069385234,
       29.859589339270872
      ],
      [
       -96.15374756638,
       29.864836165967393
      ],
      [
       -96.19232475422082,
       29.89411568416626
      ],
      [
       -96.23035119559901,
       29.911977988211962
      ],
      [
       -96.29081191419914,
       29.973033996121707
      ],
      [
       -96.31223529723725,
       30.019585284549848
      ],
      [
       -96.34006569253225,
       30.048988905549386
      ]
     ]
    ]
   }
  },
  {
   "type": "Feature",
   "geometry": {
    "type": "Polygon",
    "coordinates": [
     [
      [
       -120.6207195940068,
       36.66173703209965
      ],
      [
       -120.64404896137702,
       36.70015466883091
      ],
      [
       -120.64773732061545,
       36.75478804161732
      ],
      [
       -120.61279758008104,
       36.83090606519675
      ],
      [
       -120.55692470312675,
       36.87341767221501
      ],
      [
       -120.56762927452377,
       36.90119269703072
      ],
      [
       -120.6500958117272,
       36.9216554890105
      ],
      [
       -120.69114013292668,
       36.95125815531128
      ],
      [
       -120.71462933155752,
       37.000053475844716
      ],
      [
       -120.70274511192618,
       37.08550894317926
      ],
      [
       -120.76160519111679,
       37.09739475500482
      ],
      [
       -120.79752074676593,
       37.117604100790366
      ],
      [
       -120.82898185438758,
       37.1539121183189
      ],
      [
       -120.8365652089186,
       37.18853988597084
      ],
      [
       -120.81891068505601,
       37.245840594828614
      ],
      [
       -120.75951112914242,
       37.30435674908438
      ],
      [
       -120.72021155329045,
       37.320181693457826
      ],
      [
       -120.61941911537988,
       37.330727664845966
      ],
      [
       -120.57377379958882,
       37.3229401334629
      ],
      [
       -120.54137018137789,
       37.30536483523776
      ],
      [
       -120.50083059227748,
       37.306218881583945
      ],
      [
       -120.45529739008421,
       37.29319804723151
      ],
      [
       -120.38817108440631,
       37.28654519241382
      ],
      [
       -120.34178287594284,
       37.25732658489591
      ],
      [
       -120.318256685339,
       37.22721299108294
      ],
      [
       -120.2545103226589,
       37.236310231290076
      ],
      [
       -120.1794046398911,
       37.22335919059815
      ],
      [
       -120.12570631739429,
       37.19860152629292
      ],
      [
       -120.07063781762628,
       37.15866281120466
      ],
      [
       -120.01148138088874,
       37.12778955638514
      ],
      [
       -119.94881603922768,
       37.06429128141286
      ],
      [
       -119.8171996873219,
       37.02603359734136
      ],
      [
       -119.78160640270089,
       37.00554038170981
      ],
      [
       -119.74301315856908,
       36.960117183425915
      ],
      [
       -119.73695561814353,
       36.9144749858124
      ],
      [
       -119.7626535234646,
       36.862072467513094
      ],
      [
       -119.80262434682052,
       36.82732779130141
      ],
      [
       -119.85821838636733,
       36.805749786486736
      ],
      [
       -119.94477195137092,
       36.79980155293196
      ],
      [
       -120.00910272735845,
       36.811806496930956
      ],
      [
       -120.06041530284602,
       36.835029869931866
      ],
      [
       -120.08622817360158,
       36.8119863704411
      ],
      [
       -120.09672980641672,
       36.79039008643976
      ],
      [
       -120.04183450489045,
       36.763059194485216
      ],
      [
       -120.00300770647681,
       36.72042503435313
      ],
      [
       -119.99680333863205,
       36.67478831840812
      ],
      [
       -120.012269675302,
       36.63552560382559
      ],
      [
       -119.95451312334016,
       36.62522337386945
      ],
      [
       -119.91905795962079,
       36.60477711701003
      ],
      [
       -119.8845610707664,
       36.55859172661803
      ],
      [
       -119.83879579251386,
       36.52197555951522
      ],
      [
       -119.79475978808027,
       36.4460746952423
      ],
      [
       -119.76880049816093,
       36.42719407984384
      ],
      [
       -119.73297627572248,
       36.439335828541616
      ],
      [
       -119.69935561943092,
       36.46642221395904
      ],
      [
       -119.6603020030201,
       36.48190795041977
      ],
      [
       -119.60344225892628,
       36.48244978050211
      ],
      [
       -119.56144712268421,
       36.46630192505965
      ],
      [
       -119.50136851223293,
       36.49383198689175
      ],
      [
       -119.45840928093645,
       36.4994215267733
      ],
      [
       -119.39844404824765,
       36.48482287176188
      ],
      [
       -119.34395327532208,
       36.43599759431012
      ],
      [
       -119.31886356044937,
       36.42620918052775
      ],
      [
       -119.25796495609168,
       36.434913012684646
      ],
      [
       -119.19685623727905,
       36.417795660756596
      ],
      [
       -119.15465851368181,
       36.378612241633235
      ],
      [
       -119.13848412007843,
       36.336867470656514
      ],
      [
       -119.17066277886626,
       36.1691839985081
      ],
      [
       -119.21050654694956,
       36.13021454484382
      ],
      [
       -119.22694355540142,
       36.093785673932004
      ],
      [
       -119.2473303267775,
       36.07318962533515
      ],
      [
       -119.2784590257872,
       36.05214454283404
      ],
      [
       -119.32235388248179,
       36.039648057706636
      ],
      [
       -119.33739426468144,
       36.016110214039934
      ],
      [
       -119.36839090669055,
       35.99097460959215
      ],
      [
       -119.44236396530046,
       35.96364566667328
      ],
      [
       -119.73668195350328,
       35.92315610284991
      ],
      [
       -119.80607827861047,
       35.92847070289823
      ],
      [
       -119.86527760767986,
       35.94760737863886
      ],
      [
       -119.89094356990597,
       35.96420313159297
      ],
      [
       -119.96729202727211,
       35.94218635283311
      ],
      [
       -120.04403195291631,
       35.9548545082958
      ],
      [
       -120.08955765507469,
       35.984156301066726
      ],
      [
       -120.1137251855721,
       36.01699441803965
      ],
      [
       -120.15675099915332,
       36.03984364956096
      ],
      [
       -120.18749756954941,
       36.07629701052658
      ],
      [
       -120.1918806023934,
       36.13063444305143
      ],
      [
       -120.15325940619337,
       36.195295780297364
      ],
      [
       -120.18339097298521,
       36.227160305608926
      ],
      [
       -120.2498119499584,
       36.24927172603629
      ],
      [
       -120.28740698606512,
       36.28148514482366
      ],
      [
       -120.3028967200397,
       36.314323948335634
      ],
      [
       -120.30664278480981,
       36.36228104528083
      ],
      [
       -120.34041489568374,
       36.4080203909725
      ],
      [
       -120.39383668415738,
       36.454732508406956
      ],
      [
       -120.41330295622417,
       36.507417359269155
      ],
      [
       -120.48132902326545,
       36.54229134121601
      ],
      [
       -120.52599185121352,
       36.54682925640198
      ],
      [
       -120.56388371835921,
       36.56418692756
      ],
      [
       -120.60636065568012,
       36.605209898571545
      ],
      [
       -120.6207195940068,
       36.66173703209965
      ]
     ]
    ]
   },
   "properties": {
    "id": "san_joaquin_subsidence",
    "name": "San Joaquin Valley subsidence (Corcoran, Tulare, Los Banos)",
    "source": "venti-defo-areas on the F36542 gamma-calibrated 2016-2023 LOS velocity (threshold 15 mm/yr, subsidence only, buffer 10 km, min 50 km2), reviewed against the T40 quick-look (2026-10-10)",
    "area_km2": 11073.5,
    "stable_ring_fraction": 0.67
   }
  },
  {
   "type": "Feature",
   "geometry": {
    "type": "Polygon",
    "coordinates": [
     [
      [
       -119.29752736112219,
       35.50735175356673
      ],
      [
       -119.32072718828617,
       35.60366712729878
      ],
      [
       -119.30920003210625,
       35.63754564761194
      ],
      [
       -119.28000336576956,
       35.668122889813155
      ],
      [
       -119.24293760572803,
       35.74157570316769
      ],
      [
       -119.19617519772048,
       35.77834693034357
      ],
      [
       -119.1157287817611,
       35.79951885971262
      ],
      [
       -119.0593021145109,
       35.80049899512094
      ],
      [
       -119.01024069199879,
       35.78259981432603
      ],
      [
       -118.96866115567644,
       35.74528117948915
      ],
      [
       -118.94038351138792,
       35.64284835684136
      ],
      [
       -118.94626197319961,
       35.560474867803585
      ],
      [
       -118.96234688199132,
       35.537522668046385
      ],
      [
       -119.00588464653057,
       35.50267431726518
      ],
      [
       -119.09134365481177,
       35.452460870607986
      ],
      [
       -119.13219147664104,
       35.44153563737216
      ],
      [
       -119.1671410653871,
       35.44221115817877
      ],
      [
       -119.2525477262328,
       35.469251528762044
      ],
      [
       -119.29752736112219,
       35.50735175356673
      ]
     ]
    ]
   },
   "properties": {
    "id": "kern_subsidence_north",
    "name": "Kern County subsidence (Wasco-Delano)",
    "source": "venti-defo-areas on the F16941 gamma-calibrated 2016-2023 LOS velocity (threshold 15 mm/yr, subsidence only, buffer 10 km, min 50 km2), reviewed against the T40 quick-look (2026-10-10)",
    "area_km2": 1039.6,
    "stable_ring_fraction": 0.79
   }
  },
  {
   "type": "Feature",
   "geometry": {
    "type": "Polygon",
    "coordinates": [
     [
      [
       -119.22068478212587,
       35.14436161140619
      ],
      [
       -119.21421303167072,
       35.19430553270692
      ],
      [
       -119.17564554662478,
       35.236683329595245
      ],
      [
       -119.14835986839974,
       35.25077170020877
      ],
      [
       -119.11226357959814,
       35.25803708839533
      ],
      [
       -119.06492824280262,
       35.28900620277371
      ],
      [
       -119.00462721946725,
       35.29904700876429
      ],
      [
       -118.95179193424518,
       35.29088541933288
      ],
      [
       -118.90760825738658,
       35.26555669220565
      ],
      [
       -118.87792142065258,
       35.227097880013545
      ],
      [
       -118.83122552549798,
       35.187065923354965
      ],
      [
       -118.81726881569446,
       35.14261294648987
      ],
      [
       -118.82927429572023,
       35.09993256139906
      ],
      [
       -118.8635485369948,
       35.065726583179625
      ],
      [
       -118.9605566891016,
       35.0151717462673
      ],
      [
       -119.00822363770004,
       34.97786762517293
      ],
      [
       -119.06219663749796,
       34.966317297967635
      ],
      [
       -119.12463922371722,
       34.97804937449248
      ],
      [
       -119.17826349395588,
       35.01733826886089
      ],
      [
       -119.19825157889876,
       35.05387525281287
      ],
      [
       -119.22068478212587,
       35.14436161140619
      ]
     ]
    ]
   },
   "properties": {
    "id": "kern_subsidence_south",
    "name": "Kern County subsidence (south of Bakersfield)",
    "source": "venti-defo-areas on the F16941 gamma-calibrated 2016-2023 LOS velocity (threshold 15 mm/yr, subsidence only, buffer 10 km, min 50 km2), reviewed against the T40 quick-look (2026-10-10)",
    "area_km2": 965.2,
    "stable_ring_fraction": 0.63
   }
  },
  {
   "type": "Feature",
   "geometry": {
    "type": "Polygon",
    "coordinates": [
     [
      [
       -155.41689676283863,
       19.15894535119207
      ],
      [
       -155.44363530466265,
       19.187979606580697
      ],
      [
       -155.48967926534996,
       19.217522675615797
      ],
      [
       -155.512773294631,
       19.251724328505386
      ],
      [
       -155.55984793874367,
       19.257663838750556
      ],
      [
       -155.66620028362496,
       19.314331870272614
      ],
      [
       -155.69643883250853,
       19.340350512265523
      ],
      [
       -155.71444487966752,
       19.371153872747083
      ],
      [
       -155.7153507293023,
       19.425728928421446
      ],
      [
       -155.67268642911665,
       19.502326512313026
      ],
      [
       -155.62288476892442,
       19.56169853317351
      ],
      [
       -155.5741925822306,
       19.58902659548618
      ],
      [
       -155.51530384444933,
       19.604966419786933
      ],
      [
       -155.46712207691763,
       19.599193732673672
      ],
      [
       -155.41041577562984,
       19.556543536206785
      ],
      [
       -155.36124848312033,
       19.496987261747318
      ],
      [
       -155.31449513071328,
       19.503617936242293
      ],
      [
       -155.24345373330635,
       19.49238838657222
      ],
      [
       -155.21803800427926,
       19.481369280025874
      ],
      [
       -155.19052956953254,
       19.458012372373222
      ],
      [
       -155.14196920794822,
       19.505185644184035
      ],
      [
       -155.1136309596841,
       19.521313831525074
      ],
      [
       -155.0772687288581,
       19.528610971159384
      ],
      [
       -155.0312527057453,
       19.523076779356497
      ],
      [
       -154.97979006914187,
       19.49674460057208
      ],
      [
       -154.94785867731784,
       19.4502132669091
      ],
      [
       -154.9081170029046,
       19.428138782869095
      ],
      [
       -154.88021234520045,
       19.392619239632932
      ],
      [
       -154.8741494354767,
       19.336152386503745
      ],
      [
       -154.8996562883259,
       19.289635406499727
      ],
      [
       -154.92866598989391,
       19.26703559881238
      ],
      [
       -155.02884202160644,
       19.225606361045692
      ],
      [
       -155.084544481337,
       19.19216278744847
      ],
      [
       -155.17973023690018,
       19.167273329344788
      ],
      [
       -155.2509467926105,
       19.174202324534072
      ],
      [
       -155.29900300349834,
       19.141365863855867
      ],
      [
       -155.33433559547575,
       19.13069088227962
      ],
      [
       -155.38237720718953,
       19.136514431255037
      ],
      [
       -155.41689676283863,
       19.15894535119207
      ]
     ]
    ]
   },
   "properties": {
    "id": "kilauea",
    "name": "Kilauea summit, east rift zone and south flank",
    "source": "venti-defo-areas on the F23211 gamma-calibrated 2016-2023 LOS velocity (threshold 10 mm/yr, both signs, buffer 10 km, min 50 km2), reviewed against the T40 quick-look (2026-10-10)",
    "area_km2": 2919.8,
    "stable_ring_fraction": 0.83
   }
  }
 ]
}
