{
 "type": "FeatureCollection",
 "version": "1.0-draft",
 "description": "Venti event database v1 (plan T41.3): transient events whose spanning pairs exclude the footprint from the fit. Draft until checked against the benchmark quick-looks (T41.4).",
 "features": [
  {
   "type": "Feature",
   "properties": {
    "id": "ridgecrest_2019_mw71",
    "name": "Ridgecrest Mw 7.1 mainshock",
    "source": "USGS ComCat ci38457511 (origin, epicentre, Mw); strike from published rupture maps; footprint draft, check vs the F16941 coseismic step (T41.4)",
    "t0": "2019-07-06T03:19:53",
    "t1": null,
    "magnitude": 7.1,
    "epicentre": [
     -117.5993333,
     35.7695
    ],
    "strike_deg": 320.0,
    "rupture_length_km": 50.6,
    "buffer_km": 37.9,
    "footprint_rule": "rupture (Wells & Coppersmith 1994 SRL) along strike through the epicentre, buffered by max(15 km, 0.75 L)"
   },
   "geometry": {
    "type": "Polygon",
    "coordinates": [
     [
      [
       -117.09788696074897,
       35.81361845119364
      ],
      [
       -117.07316472119788,
       35.78678187837832
      ],
      [
       -117.05180607441896,
       35.75809628312471
      ],
      [
       -117.03401433444719,
       35.72783973107326
      ],
      [
       -117.01995763669942,
       35.696305192760136
      ],
      [
       -117.00976744600587,
       35.66379766162469
      ],
      [
       -117.0035374442397,
       35.63063116754623
      ],
      [
       -117.00132280205081,
       35.597125716500756
      ],
      [
       -117.00313983480189,
       35.56360418710842
      ],
      [
       -117.0089660386799,
       35.53038921468372
      ],
      [
       -117.01874049916484,
       35.497800092928834
      ],
      [
       -117.03236466060976,
       35.46614972265321
      ],
      [
       -117.04970344264446,
       35.43574163589021
      ],
      [
       -117.07058668645715,
       35.406867122542764
      ],
      [
       -117.09481091173606,
       35.379802485257414
      ],
      [
       -117.12214136313847,
       35.35480644662434
      ],
      [
       -117.1523143235803,
       35.332117731061416
      ],
      [
       -117.18503967036914,
       35.31195284188323
      ],
      [
       -117.22000364920284,
       35.2945040521061
      ],
      [
       -117.25687184028826,
       35.27993762551509
      ],
      [
       -117.29529229026011,
       35.268392282435514
      ],
      [
       -117.33489878316561,
       35.25997792252339
      ],
      [
       -117.37531422348864,
       35.25477461472747
      ],
      [
       -117.41615410399295,
       35.252831862389094
      ],
      [
       -117.45703003103843,
       35.254168149243384
      ],
      [
       -117.49755327995068,
       35.2587707698698
      ],
      [
       -117.53733835298918,
       35.26659594591921
      ],
      [
       -117.5760065124534,
       35.27756922722021
      ],
      [
       -117.61318926149302,
       35.29158617464492
      ],
      [
       -117.64853174524885,
       35.308513319396475
      ],
      [
       -117.68169604506348,
       35.328189391173254
      ],
      [
       -117.71236433867624,
       35.35042680547193
      ],
      [
       -117.74024189958678,
       35.37501339812229
      ],
      [
       -118.10021298169488,
       35.72329294115881
      ],
      [
       -118.12525912560947,
       35.74991726951797
      ],
      [
       -118.14699977451396,
       35.778410536202095
      ],
      [
       -118.1652233536368,
       35.80850016269961
      ],
      [
       -118.17975131164847,
       35.83989799170249
      ],
      [
       -118.19043995335875,
       35.8723029996239
      ],
      [
       -118.19718196534201,
       35.90540414293054
      ],
      [
       -118.1999076146619,
       35.93888331295531
      ],
      [
       -118.19858560305711,
       35.972418372378634
      ],
      [
       -118.19322356151955,
       36.005686245278504
      ],
      [
       -118.18386817315988,
       36.03836603157786
      ],
      [
       -118.17060491560908,
       36.0701421158968
      ],
      [
       -118.153557417934,
       36.10070724027293
      ],
      [
       -118.13288643112148,
       36.12976550997719
      ],
      [
       -118.10878841556338,
       36.15703530174991
      ],
      [
       -118.08149375359234,
       36.18225204423448
      ],
      [
       -118.05126459990406,
       36.20517084121155
      ],
      [
       -118.01839238755984,
       36.22556890944531
      ],
      [
       -117.98319501210125,
       36.24324780454908
      ],
      [
       -117.94601372101205,
       36.25803541025344
      ],
      [
       -117.9072097402215,
       36.26978766880475
      ],
      [
       -117.86716067344385,
       36.27839003290935
      ],
      [
       -117.826256713781,
       36.28375862263805
      ],
      [
       -117.78489671008165,
       36.28584107397607
      ],
      [
       -117.74348413295809,
       36.28461706919355
      ],
      [
       -117.70242298704878,
       36.28009854286973
      ],
      [
       -117.66211371702309,
       36.27232956116561
      ],
      [
       -117.6229491549325,
       36.26138587574355
      ],
      [
       -117.58531055581506,
       36.247374157512446
      ],
      [
       -117.54956376697663,
       36.230430919068446
      ],
      [
       -117.51605557415012,
       36.210721138243606
      ],
      [
       -117.48511026483354,
       36.188436598509504
      ],
      [
       -117.45702644561797,
       36.16379396506051
      ],
      [
       -117.09788696074897,
       35.81361845119364
      ]
     ]
    ]
   }
  },
  {
   "type": "Feature",
   "properties": {
    "id": "ridgecrest_2019_mw64",
    "name": "Ridgecrest Mw 6.4 foreshock",
    "source": "USGS ComCat ci38443183 (origin, epicentre, Mw); strike from published rupture maps; footprint draft, check vs the F16941 coseismic step (T41.4)",
    "t0": "2019-07-04T17:33:49",
    "t1": null,
    "magnitude": 6.4,
    "epicentre": [
     -117.5038333,
     35.7053333
    ],
    "strike_deg": 45.0,
    "rupture_length_km": 15.3,
    "buffer_km": 15.0,
    "footprint_rule": "rupture (Wells & Coppersmith 1994 SRL) along strike through the epicentre, buffered by max(15 km, 0.75 L)"
   },
   "geometry": {
    "type": "Polygon",
    "coordinates": [
     [
      [
       -117.4466873466795,
       35.56082245452117
      ],
      [
       -117.45872289656391,
       35.551917718984974
      ],
      [
       -117.47176599028555,
       35.544018502752486
      ],
      [
       -117.48569124510398,
       35.53720057719974
      ],
      [
       -117.50036492395732,
       35.53152932408747
      ],
      [
       -117.51564620916395,
       35.527059116521784
      ],
      [
       -117.53138853950145,
       35.52383280461362
      ],
      [
       -117.54744099851445,
       35.52188131043983
      ],
      [
       -117.56364974155896,
       35.52122333591936
      ],
      [
       -117.57985944883859,
       35.5218651862048
      ],
      [
       -117.59591479151715,
       35.52380071015859
      ],
      [
       -117.6116618979092,
       35.52701135844202
      ],
      [
       -117.6269498067488,
       35.53146635870082
      ],
      [
       -117.64163189462097,
       35.53712300629011
      ],
      [
       -117.65556726480773,
       35.54392706795012
      ],
      [
       -117.66862208505455,
       35.55181329483123
      ],
      [
       -117.68067086210462,
       35.560706040276365
      ],
      [
       -117.6915976412778,
       35.57051997681219
      ],
      [
       -117.70129711989478,
       35.5811609058795
      ],
      [
       -117.70967566396146,
       35.59252665296134
      ],
      [
       -117.71665221824139,
       35.60450803994699
      ],
      [
       -117.72215910065098,
       35.61698992581205
      ],
      [
       -117.7261426728193,
       35.629852306005404
      ],
      [
       -117.72856387965425,
       35.642971460321526
      ],
      [
       -117.72939865185417,
       35.65622113850843
      ],
      [
       -117.7286381664884,
       35.6694737724243
      ],
      [
       -117.72628896204131,
       35.68260170321817
      ],
      [
       -117.72237290565965,
       35.6954784117757
      ],
      [
       -117.71692701175421,
       35.70797974054844
      ],
      [
       -117.71000311257252,
       35.71998509487599
      ],
      [
       -117.7016673828619,
       35.73137861202164
      ],
      [
       -117.69199972226536,
       35.74205028637286
      ],
      [
       -117.68109300062149,
       35.75189703961191
      ],
      [
       -117.56118586877942,
       35.84981343967976
      ],
      [
       -117.54911687963354,
       35.8587279913969
      ],
      [
       -117.53603006924344,
       35.86663518718142
      ],
      [
       -117.52205169995763,
       35.87345857046316
      ],
      [
       -117.50731676510493,
       35.879132146262776
      ],
      [
       -117.49196767457576,
       35.88360102768411
      ],
      [
       -117.47615286389167,
       35.88682197408921
      ],
      [
       -117.4600253409109,
       35.88876381539833
      ],
      [
       -117.44374118509124,
       35.889407758119454
      ],
      [
       -117.42745801482398,
       35.88874756993081
      ],
      [
       -117.41133343875434,
       35.8867896408975
      ],
      [
       -117.395523507206,
       35.88355292068572
      ],
      [
       -117.38018117982475,
       35.87906873242823
      ],
      [
       -117.36545482535382,
       35.873380465176496
      ],
      [
       -117.35148676904645,
       35.866543148132976
      ],
      [
       -117.33841190262875,
       35.85862291107375
      ],
      [
       -117.3263563709485,
       35.849696336534926
      ],
      [
       -117.31543634850493,
       35.83984971042946
      ],
      [
       -117.3057569179669,
       35.8291781787738
      ],
      [
       -117.2974110615679,
       35.81778481912371
      ],
      [
       -117.29047877494354,
       35.80577963613721
      ],
      [
       -117.2850263115669,
       35.79327849139151
      ],
      [
       -117.28110556446676,
       35.78040197817488
      ],
      [
       -117.27875359040159,
       35.76727425244907
      ],
      [
       -117.27799228013403,
       35.75402183153125
      ],
      [
       -117.27882817692317,
       35.74077237227553
      ],
      [
       -117.28125244384793,
       35.72765344064461
      ],
      [
       -117.2852409791069,
       35.71479128455306
      ],
      [
       -117.29075467702795,
       35.7023096217409
      ],
      [
       -117.29773983117275,
       35.690328454201364
      ],
      [
       -117.30612867465095,
       35.67896292034923
      ],
      [
       -117.3158400515715,
       35.66832219567793
      ],
      [
       -117.32678021246245,
       35.65850845212652
      ],
      [
       -117.4466873466795,
       35.56082245452117
      ]
     ]
    ]
   }
  }
 ]
}
